[{"OBJECT_NAME":"NINGXIA-1 7","OBJECT_ID":"2021-064B","EPOCH":"2026-03-09T23:03:16.134624","MEAN_MOTION":14.08535138,"ECCENTRICITY":0.00060368,"INCLINATION":45.0039,"RA_OF_ASC_NODE":315.6009,"ARG_OF_PERICENTER":124.1771,"MEAN_ANOMALY":235.9639,"EPHEMERIS_TYPE":0,"CLASSIFICATION_TYPE":"U","NORAD_CAT_ID":49019,"ELEMENT_SET_NO":999,"REV_AT_EPOCH":24025,"BSTAR":0.00016183554,"MEAN_MOTION_DOT":1.48e-6,"MEAN_MOTION_DDOT":0},{"OBJECT_NAME":"FENGYUN 1C DEB","OBJECT_ID":"1999-025CGS","EPOCH":"2026-03-09T16:20:01.908096","MEAN_MOTION":14.1275472,"ECCENTRICITY":0.01384808,"INCLINATION":98.2886,"RA_OF_ASC_NODE":235.8629,"ARG_OF_PERICENTER":253.7277,"MEAN_ANOMALY":104.8626,"EPHEMERIS_TYPE":0,"CLASSIFICATION_TYPE":"U","NORAD_CAT_ID":31804,"ELEMENT_SET_NO":999,"REV_AT_EPOCH":64889,"BSTAR":0.0020421151,"MEAN_MOTION_DOT":4.113e-5,"MEAN_MOTION_DDOT":0}]
